GECAM-A                 
1 47234U 20094A   26058.13989985  .00002379  00000+0  17329-3 0  9993
2 47234  28.9961  20.3521 0010700 243.6219 116.3280 15.00334340285149
STARLINK-4392           
1 53489U 22099AA  26068.89825182  .00000755  00000+0  63339-4 0  9990
2 53489  97.6024 190.3939 0002502 177.0210 183.1030 15.01259695196016
